ORBCOMM FM05            
1 25117U 97084F   25273.08760214  .00003598  00000+0  10342-2 0  9997
2 25117  45.0130 224.2735 0003551 350.5609   9.5175 14.46282034455799
ORBCOMM FM06            
1 25118U 97084G   25273.14118411  .00003910  00000+0  11165-2 0  9993
2 25118  45.0124 223.6341 0002739 338.5921  35.5330 14.46435645456723
ORBCOMM FM07            
1 25119U 97084H   25272.94443336  .00003843  00000+0  10979-2 0  9995
2 25119  45.0120 225.3409 0004343 353.1287   6.9504 14.46444025456687
ORBCOMM FM03            
1 25158U 98007B   25273.13690441  .00002325  00000+0  85671-3 0  9993
2 25158 107.9621 351.2304 0042594  64.6958 295.8586 14.34741700439098
ORBCOMM FM04            
1 25159U 98007C   25273.10314839  .00002199  00000+0  81046-3 0  9996
2 25159 107.9608 354.4512 0038371  61.8929 298.6082 14.34984540439278
ORBCOMM FM17            
1 25413U 98046A   25273.02274093  .00001616  00000+0  60763-3 0  9996
2 25413  44.9932 122.7669 0003295  26.3024 333.7990 14.35294964418236
ORBCOMM FM18            
1 25414U 98046B   25273.06727789  .00002748  00000+0  93081-3 0  9992
2 25414  44.9932  37.1268 0004356 112.0374 248.0938 14.38833360419357
ORBCOMM FM19            
1 25415U 98046C   25272.77894013  .00003399  00000+0  11446-2 0  9992
2 25415  44.9945  40.6577 0003090 111.4711  37.8378 14.38647317419263
